GLOBALSTAR M067         
1 32263U 07048A   25355.34375800 -.00000070  00000+0  20142-3 0  9994
2 32263  51.9701 208.2912 0002004  51.1319 120.1436 12.40683075832715
GLOBALSTAR M070         
1 32264U 07048B   25355.50051531 -.00000071  00000+0  18435-3 0  9998
2 32264  51.9758 277.8666 0000539  62.9586 109.3384 12.62327610837320
GLOBALSTAR M066         
1 32265U 07048C   25355.35450520 -.00000087  00000+0  66376-4 0  9998
2 32265  51.9569 208.4194 0005673  39.5639 131.9980 12.30383536838339
GLOBALSTAR M068         
1 32266U 07048D   25355.50095931 -.00000086  00000+0  10003-3 0  9991
2 32266  51.9888  91.2542 0001537 160.3051 283.5510 12.62835633841225
GLOBALSTAR M079         
1 37188U 10054A   25355.22857088 -.00000078  00000+0  14431-3 0  9998
2 37188  52.0066 290.4048 0000769  32.8010 114.9555 12.62261804700077
GLOBALSTAR M074         
1 37189U 10054B   25355.25583273 -.00000080  00000+0  13359-3 0  9995
2 37189  52.0027 289.6140 0000818  58.2795  93.0418 12.62264226700688
GLOBALSTAR M076         
1 37190U 10054C   25355.28542971 -.00000082  00000+0  12110-3 0  9996
2 37190  52.0041 289.7131 0000909  48.5756 116.2728 12.62268281700404
GLOBALSTAR M077         
1 37191U 10054D   25355.47571109 -.00000088  00000+0 -18208-3 0  9994
2 37191  51.9979 270.6998 0001295  37.8339 133.0637 11.68176442700374
